NORAD_CAT_ID,OBJECT_NAME,OBJECT_TYPE,EPOCH,MEAN_MOTION,ECCENTRICITY,INCLINATION,RA_OF_ASC_NODE,ARG_OF_PERICENTER,MEAN_ANOMALY,BSTAR,MEAN_MOTION_DOT,MEAN_MOTION_DDOT,TLE_LINE0,TLE_LINE1,TLE_LINE2,SEMIMAJOR_AXIS,PERIOD,APOGEE,PERIGEE,DECAYED
55419.0,STARLINK-5629,PAYLOAD,2023-05-26 22:00:01,15.03932149,0.0003191,69.9978,130.6208,264.4719,310.896,-0.072806,-0.00929211,0.0,0 STARLINK-5629,1 55419U 23014AE  23146.91668981 -.00929211  00000-0 -72806-1 0  9998,2 55419  69.9978 130.6208 0003191 264.4719 310.8960 15.03932149 18172,6932.923,95.749,557.0,552.575,0.0
55419.0,STARLINK-5629,PAYLOAD,2023-05-27 22:00:00,15.01979771,0.000319,69.9977,128.0808,265.1347,319.1885,-0.077398,-0.00947853,0.0,0 STARLINK-5629,1 55419U 23014AE  23147.91667824 -.00947853  00000-0 -77398-1 0  9997,2 55419  69.9977 128.0808 0003190 265.1347 319.1885 15.01979771  1307,6938.929,95.873,563.008,558.581,0.0
55419.0,STARLINK-5629,PAYLOAD,2023-05-28 06:00:00,15.01284314,0.0003202,69.9976,127.2359,273.0797,312.7072,-0.074054,-0.00884324,0.0,0 STARLINK-5629,1 55419U 23014AE  23148.25001157 -.00884324  00000-0 -74054-1 0  9995,2 55419  69.9976 127.2359 0003202 273.0797 312.7072 15.01284314 18373,6941.072,95.918,565.159,560.714,0.0
55419.0,STARLINK-5629,PAYLOAD,2023-05-28 22:00:00,14.99968463,0.0003214,69.9979,125.5487,268.1376,318.1756,-0.068747,-0.00798917,0.0,0 STARLINK-5629,1 55419U 23014AE  23148.91667824 -.00798917  00000-0 -68747-1 0  9991,2 55419  69.9979 125.5487 0003214 268.1376 318.1756 14.99968463 18470,6945.131,96.002,569.228,564.764,0.0
55419.0,STARLINK-5629,PAYLOAD,2023-05-29 06:00:00,14.99286925,0.000325,69.9981,124.7064,275.0788,310.3468,0.0011056,0.00013455,0.0,0 STARLINK-5629,1 55419U 23014AE  23149.25001157  .00013455  00000-0  11056-2 0  9997,2 55419  69.9981 124.7064 0003250 275.0788 310.3468 14.99286925 18525,6947.235,96.046,571.358,566.842,0.0
55419.0,STARLINK-5629,PAYLOAD,2023-05-29 14:00:01,14.99311975,0.0003264,69.9983,123.8644,273.2543,310.8031,-0.0037085,-0.00045194,0.0,0 STARLINK-5629,1 55419U 23014AE  23149.58334491 -.00045194  00000-0 -37085-2 0  9990,2 55419  69.9983 123.8644 0003264 273.2543 310.8031 14.99311975  1308,6947.158,96.044,571.29,566.755,0.0
55419.0,STARLINK-5629,PAYLOAD,2023-05-29 21:00:59,15.0037305,0.0002671,69.9968,123.1283,262.5186,97.567,-0.015107,-0.00185262,0.0,0 STARLINK-5629,1 55419U 23014AE  23149.87569277 -.00185262  00000-0 -15107-1 0  9995,2 55419  69.9968 123.1283 0002671 262.5186  97.5670 15.00373050 19557,6943.882,95.976,567.602,563.892,0.0
55419.0,STARLINK-5629,PAYLOAD,2023-05-30 06:00:00,14.99284303,0.0003277,69.9994,122.1811,274.3161,307.0312,0.0020695,0.00025309,0.0,0 STARLINK-5629,1 55419U 23014AE  23150.25001157  .00025309  00000-0  20695-2 0  9999,2 55419  69.9994 122.1811 0003277 274.3161 307.0312 14.99284303 18672,6947.243,96.046,571.385,566.832,0.0
55419.0,STARLINK-5629,PAYLOAD,2023-05-30 14:00:01,14.9932259,0.0003223,69.9992,121.3393,272.7863,307.1988,-0.0034435,-0.00042002,0.0,0 STARLINK-5629,1 55419U 23014AE  23150.58334491 -.00042002  00000-0 -34435-2 0  9993,2 55419  69.9992 121.3393 0003223 272.7863 307.1988 14.99322590  1301,6947.125,96.043,571.229,566.751,0.0
55419.0,STARLINK-5629,PAYLOAD,2023-05-31 00:00:02,14.99334957,0.0003268,69.9996,120.2872,269.095,39.262,-0.0027041,-0.00033056,0.0,0 STARLINK-5629,1 55419U 23014AE  23151.00002315 -.00033056  00000-0 -27041-2 0  9992,2 55419  69.9996 120.2872 0003268 269.0950  39.2620 14.99334957  1306,6947.087,96.043,571.222,566.682,0.0
55419.0,STARLINK-5629,PAYLOAD,2023-05-31 06:00:02,14.99306917,0.0003215,69.9995,119.6558,273.6571,303.7127,-0.00091758,-0.00011305,0.0,0 STARLINK-5629,1 55419U 23014AE  23151.25002315 -.00011305  00000-0 -91758-3 0  9999,2 55419  69.9995 119.6558 0003215 273.6571 303.7127 14.99306917 18821,6947.173,96.044,571.272,566.805,0.0
55419.0,STARLINK-5629,PAYLOAD,2023-05-31 14:00:01,14.99311102,0.0003142,69.9994,118.8141,270.719,305.2415,-0.0031093,-0.00037945,0.0,0 STARLINK-5629,1 55419U 23014AE  23151.58334491 -.00037945  00000-0 -31093-2 0  9991,2 55419  69.9994 118.8141 0003142 270.7190 305.2415 14.99311102  1307,6947.161,96.044,571.208,566.843,0.0
55419.0,STARLINK-5629,PAYLOAD,2023-05-31 22:00:00,14.99304875,0.0003139,69.9999,117.9725,266.2058,308.3905,0.00067064,8.122e-05,0.0,0 STARLINK-5629,1 55419U 23014AE  23151.91667824  .00008122  00000-0  67064-3 0  9998,2 55419  69.9999 117.9725 0003139 266.2058 308.3905 14.99304875  1306,6947.18,96.045,571.226,566.864,0.0
55419.0,STARLINK-5629,PAYLOAD,2023-06-01 06:39:12,14.99299575,0.0003022,69.9989,117.063,271.0042,89.0772,3.9008e-05,3.83e-06,0.0,0 STARLINK-5629,1 55419U 23014AE  23152.27722357  .00000383  00000-0  39008-4 0  9990,2 55419  69.9989 117.0630 0003022 271.0042  89.0772 14.99299575 19910,6947.196,96.045,571.161,566.962,0.0
55419.0,STARLINK-5629,PAYLOAD,2023-06-01 21:03:51,14.99301213,0.0002943,69.9992,115.5469,269.9699,90.1124,-5.7782e-05,-8.01e-06,0.0,0 STARLINK-5629,1 55419U 23014AE  23152.87767645 -.00000801  00000-0 -57782-4 0  9991,2 55419  69.9992 115.5469 0002943 269.9699  90.1124 14.99301213 20001,6947.191,96.045,571.101,567.012,0.0
55419.0,STARLINK-5629,PAYLOAD,2023-06-02 14:00:01,14.99304022,0.0003149,70.0001,113.7636,270.1769,297.6603,-0.0023072,-0.00028214,0.0,0 STARLINK-5629,1 55419U 23014AE  23153.58334491 -.00028214  00000-0 -23072-2 0  9990,2 55419  70.0001 113.7636 0003149 270.1769 297.6603 14.99304022 19175,6947.182,96.045,571.235,566.86,0.0
55419.0,STARLINK-5629,PAYLOAD,2023-06-02 22:00:00,14.99308491,0.0003171,70.0006,112.922,265.9447,300.5233,0.00013403,1.547e-05,0.0,0 STARLINK-5629,1 55419U 23014AE  23153.91667824  .00001547  00000-0  13403-3 0  9992,2 55419  70.0006 112.9220 0003171 265.9447 300.5233 14.99308491  1303,6947.169,96.044,571.237,566.831,0.0
55419.0,STARLINK-5629,PAYLOAD,2023-06-03 03:29:13,14.99298764,0.0002947,69.9993,112.345,266.7057,93.3766,-9.6775e-06,-2.12e-06,0.0,0 STARLINK-5629,1 55419U 23014AE  23154.14529510 -.00000212  00000-0 -96775-5 0  9992,2 55419  69.9993 112.3450 0002947 266.7057  93.3766 14.99298764 19252,6947.199,96.045,571.111,567.016,0.0
55419.0,STARLINK-5629,PAYLOAD,2023-06-03 06:41:22,14.99298523,0.0002998,69.9991,112.0079,267.3381,92.7435,-1.4657e-05,-2.73e-06,0.0,0 STARLINK-5629,1 55419U 23014AE  23154.27872909 -.00000273  00000-0 -14657-4 0  9994,2 55419  69.9991 112.0079 0002998 267.3381  92.7435 14.99298523 20214,6947.199,96.045,571.147,566.982,0.0
55419.0,STARLINK-5629,PAYLOAD,2023-06-04 06:42:27,14.99300808,0.0003055,69.9992,109.4815,269.362,90.7189,2.274e-05,1.84e-06,0.0,0 STARLINK-5629,1 55419U 23014AE  23155.27947931  .00000184  00000-0  22740-4 0  9994,2 55419  69.9992 109.4815 0003055 269.3620  90.7189 14.99300808 19421,6947.192,96.045,571.18,566.935,0.0
55419.0,STARLINK-5629,PAYLOAD,2023-06-04 21:07:06,14.99300659,0.0003104,69.9992,107.9656,269.7563,90.3241,1.5079e-05,9.1e-07,0.0,0 STARLINK-5629,1 55419U 23014AE  23155.87993084  .00000091  00000-0  15079-4 0  9994,2 55419  69.9992 107.9656 0003104 269.7563  90.3241 14.99300659 20456,6947.193,96.045,571.214,566.901,0.0
55419.0,STARLINK-5629,PAYLOAD,2023-06-05 06:43:31,14.99304556,0.0003053,69.9993,106.9544,268.7471,91.3339,5.7559e-05,6.11e-06,0.0,0 STARLINK-5629,1 55419U 23014AE  23156.28022740  .00000611  00000-0  57559-4 0  9999,2 55419  69.9993 106.9544 0003053 268.7471  91.3339 14.99304556 19572,6947.181,96.045,571.167,566.925,0.0
55419.0,STARLINK-5629,PAYLOAD,2023-06-05 21:08:11,14.99297934,0.0002964,69.9996,105.438,268.8166,91.2654,-3.0691e-05,-4.69e-06,0.0,0 STARLINK-5629,1 55419U 23014AE  23156.88068522 -.00000469  00000-0 -30691-4 0  9994,2 55419  69.9996 105.4380 0002964 268.8166  91.2654 14.99297934 20605,6947.201,96.045,571.125,567.007,0.0
55419.0,STARLINK-5629,PAYLOAD,2023-06-06 00:20:19,14.99297342,0.000297,69.9996,105.1011,268.7855,91.2964,-3.56e-05,-5.29e-06,0.0,0 STARLINK-5629,1 55419U 23014AE  23157.01411946 -.00000529  00000-0 -35600-4 0  9994,2 55419  69.9996 105.1011 0002970 268.7855  91.2964 14.99297342 19687,6947.203,96.045,571.131,567.005,0.0
55419.0,STARLINK-5629,PAYLOAD,2023-06-06 06:44:36,14.99302226,0.0002939,69.9995,104.4272,268.8243,91.258,1.9643e-05,1.47e-06,0.0,0 STARLINK-5629,1 55419U 23014AE  23157.28098201  .00000147  00000-0  19643-4 0  9991,2 55419  69.9995 104.4272 0002939 268.8243  91.2580 14.99302226 20666,6947.188,96.045,571.095,567.011,0.0
55419.0,STARLINK-5629,PAYLOAD,2023-06-06 19:33:17,14.99243316,0.0003005,69.9996,103.0799,263.8815,96.2002,-0.00060972,-7.535e-05,0.0,0 STARLINK-5629,1 55419U 23014AE  23157.81478328 -.00007535  00000-0 -60972-3 0  9992,2 55419  69.9996 103.0799 0003005 263.8815  96.2002 14.99243316 20748,6947.37,96.048,571.323,567.147,0.0
55419.0,STARLINK-5629,PAYLOAD,2023-06-07 00:21:59,14.98885132,0.0002714,69.9996,102.5757,253.302,106.7841,-0.0044144,-0.00053125,0.0,0 STARLINK-5629,1 55419U 23014AE  23158.01527539 -.00053125  00000-0 -44144-2 0  9992,2 55419  69.9996 102.5757 0002714 253.3020 106.7841 14.98885132 19837,6948.477,96.071,572.228,568.456,0.0
55419.0,STARLINK-5629,PAYLOAD,2023-06-07 06:46:31,14.98767768,0.0003135,69.9999,101.9033,265.7525,94.3276,-0.0053637,-0.00064234,0.0,0 STARLINK-5629,1 55419U 23014AE  23158.28231316 -.00064234  00000-0 -53637-2 0  9996,2 55419  69.9999 101.9033 0003135 265.7525  94.3276 14.98767768 19877,6948.839,96.079,572.883,568.526,0.0
55419.0,STARLINK-5629,PAYLOAD,2023-06-08 01:59:52,14.98681573,0.0002992,69.9998,99.8824,266.4972,93.5845,-0.005079,-0.00060723,0.0,0 STARLINK-5629,1 55419U 23014AE  23159.08324658 -.00060723  00000-0 -50790-2 0  9993,2 55419  69.9998  99.8824 0002992 266.4972  93.5845 14.98681573 19998,6949.106,96.084,573.05,568.892,0.0
55419.0,STARLINK-5629,PAYLOAD,2023-06-08 06:48:13,14.98663434,0.0003257,69.9998,99.3769,270.7678,89.3108,-0.0049376,-0.00059023,0.0,0 STARLINK-5629,1 55419U 23014AE  23159.28348924 -.00059023  00000-0 -49376-2 0  9996,2 55419  69.9998  99.3769 0003257 270.7678  89.3108 14.98663434 20967,6949.162,96.086,573.29,568.764,0.0
